SL-16 R/B               
1 19120U 88039B   24045.19859718  .00000011  00000+0  27975-4 0  9999
2 19120  71.0127 223.6449 0019957  53.9497 306.3474 14.19377596851587
COSMOS 1953             
1 19210U 88050A   24045.47030993  .00012050  00000+0  67698-3 0  9990
2 19210  82.5164 188.0969 0014580 236.5285 123.4553 15.13110284944276
SL-8 R/B                
1 19257U 88053B   24044.79129619  .00000570  00000+0  19636-3 0  9995
2 19257  74.0465  63.0500 0018946  69.5268 103.0123 14.38057765868042
COSMOS 1975             
1 19573U 88093A   24044.77418475  .00010472  00000+0  60170-3 0  9990
2 19573  82.5288 146.0990 0014419 289.5590  70.4083 15.12299403904704
SL-14 R/B               
1 19574U 88093B   24045.48809940  .00001272  00000+0  14851-3 0  9994
2 19574  82.5311  29.2677 0021723  15.8996 103.8133 14.84245642910193
SL-16 R/B               
1 19650U 88102B   24044.90991618 -.00000105  00000+0 -29010-4 0  9990
2 19650  71.0000 299.3871 0011902  78.6488 281.5972 14.15942126820047
INTERCOSMOS 24          
1 20261U 89080A   24045.47166593  .00001725  00000+0  51617-3 0  9999
2 20261  82.6029 234.4037 1195862 240.6357 107.0178 12.57607905571506
SL-14 R/B               
1 20262U 89080C   24045.39309092  .00000560  00000+0  15969-3 0  9990
2 20262  82.5937 297.2942 1235013 107.8973 266.0468 12.49584466565482
DELTA 1 R/B             
1 20323U 89089B   24044.86939301  .00001618  00000+0  42011-3 0  9993
2 20323  97.1028 358.9655 0070334 345.1604  14.7528 14.49280430786340
ARIANE 40 R/B           
1 20443U 90005H   24045.45511974  .00000724  00000+0  24950-3 0  9993
2 20443  98.4094 113.5704 0009435 314.0666  45.9744 14.38789361784560
DELTA 2 R/B(1)          
1 20453U 90008B   24044.94364272  .00022806  00000+0  94415-3 0  9995
2 20453  35.6177 229.7976 0218586  34.8820 326.6012 15.03970632810771
COSMOS 2058             
1 20465U 90010A   24045.47501362  .00006055  00000+0  45542-3 0  9998
2 20465  82.4851  64.3327 0014290  13.6887 346.4723 15.02316025849758
SL-14 R/B               
1 20466U 90010B   24045.06729273  .00000979  00000+0  11958-3 0  9990
2 20466  82.4999 255.4245 0018799 265.1681  94.7387 14.82242118837707
SL-14 R/B               
1 20511U 90018B   24045.51699425  .00001045  00000+0  13201-3 0  9992
2 20511  82.5215 207.3648 0017866  54.5446 305.7432 14.80868554832006
HST                     
1 20580U 90037B   24044.83067599  .00008972  00000+0  44578-3 0  9991
2 20580  28.4690  97.1185 0003052 121.7477 238.3413 15.15924115658137
SL-16 R/B               
1 20625U 90046B   24044.80210067 -.00000017  00000+0  15651-4 0  9992
2 20625  70.9975  83.0643 0013930   2.3087 357.8097 14.14801435741613
COSMOS 2084             
1 20663U 90055A   24045.20424659  .00006583  00000+0  49932-3 0  9994
2 20663  62.7930  14.5187 0123562 108.4698 252.9874 14.97247161823009
SL-6 R/B(2)             
1 20666U 90055D   24044.95270935  .00004982  00000+0  40260-3 0  9990
2 20666  62.7843 289.0448 0102782 130.6060 230.4035 14.97042776824922
SL-8 R/B                
1 20775U 90078B   24045.49042081  .00016832  00000+0  70211-3 0  9991
2 20775  82.9198 192.2238 0487931 330.2205  27.2010 14.55660966698298
SL-8 R/B                
1 21088U 91006B   24044.96022531  .00000229  00000+0  21479-3 0  9995
2 21088  82.9443  11.4345 0022431 352.7746  65.8986 13.77318153660176
OKEAN-3                 
1 21397U 91039A   24044.90410200  .00007098  00000+0  61002-3 0  9999
2 21397  82.5235 344.0229 0017202  15.2752 344.8986 14.97183783751799
COSMOS 2151             
1 21422U 91042A   24045.18717230  .00003640  00000+0  32925-3 0  9997
2 21422  82.4966  88.6710 0015255  83.9390 276.3569 14.95093073771406
SL-14 R/B               
1 21423U 91042B   24045.49000614  .00001131  00000+0  14422-3 0  9998
2 21423  82.4933 206.8169 0016981 193.5288 166.5473 14.80593036762462
ERS-1                   
1 21574U 91050A   24044.91047255  .00000834  00000+0  28723-3 0  9990
2 21574  98.7695  33.8665 0031525 280.5120  79.2515 14.38389706707181
ARIANE 40 R/B           
1 21610U 91050F   24045.20684483  .00000934  00000+0  29958-3 0  9996
2 21610  98.3066 110.6256 0003116 177.9828 182.1374 14.41690985710504
INTERCOSMOS 25          
1 21819U 91086A   24044.71473528  .00004745  00000+0  95780-3 0  9997
2 21819  82.6049  45.1623 1501886 299.9926  46.0357 12.08275722405367
SL-8 R/B                
1 21876U 92008B   24044.97387251  .00000171  00000+0  16036-3 0  9996
2 21876  82.9257 108.9796 0036182  82.9872  90.6307 13.75793890605632
SL-8 R/B                
1 21938U 92020B   24044.91007470  .00000107  00000+0  95706-4 0  9996
2 21938  82.9339 354.2933 0027843 243.6029 175.7571 13.75390168597375
COSMOS 2219             
1 22219U 92076A   24045.53298910  .00000219  00000+0  14032-3 0  9996
2 22219  71.0619 154.3160 0020617 272.7412  87.1350 14.13833659612100
SL-16 R/B               
1 22220U 92076B   24044.93206997  .00000405  00000+0  22678-3 0  9997
2 22220  71.0024 337.9908 0012574 176.1225 249.5952 14.16625080614938
COSMOS 2221             
1 22236U 92080A   24045.13662001  .00003729  00000+0  37406-3 0  9991
2 22236  82.5046 278.9395 0014980 195.1406 164.9367 14.91005412689199
SL-16 R/B               
1 22285U 92093B   24044.71856134 -.00000083  00000+0 -18224-4 0  9994
2 22285  71.0224 148.9044 0004378 343.5735  16.5245 14.15227561606334
COSMOS 2228             
1 22286U 92094A   24045.51781396  .00003989  00000+0  39576-3 0  9990
2 22286  82.5165 236.3289 0019209 316.3623  43.6077 14.91408505684481
SL-16 R/B               
1 22566U 93016B   24045.18297110  .00000404  00000+0  23288-3 0  9997
2 22566  71.0101 359.6338 0009345  19.2944 340.8531 14.15109066595433
COSMOS 2242             
1 22626U 93024A   24045.32455240  .00003451  00000+0  34479-3 0  9998
2 22626  82.5181 265.2766 0017228 319.3681  40.6252 14.91127234668070
SL-16 R/B               
1 22803U 93059B   24045.47356596  .00000073  00000+0  59965-4 0  9998
2 22803  70.9910 161.3564 0019582 278.3230  81.5673 14.16997097572949
ARIANE 40 R/B           
1 22830U 93061H   24045.47014468  .00000551  00000+0  22176-3 0  9994
2 22830  98.5865 114.4942 0010658 358.5373   1.5777 14.31991984586372
COSMOS 2278             
1 23087U 94023A   24044.89817058  .00000086  00000+0  69884-4 0  9990
2 23087  71.0561 313.8941 0006270 105.2054 254.9762 14.14052271538090
SL-16 R/B               
1 23088U 94023B   24044.89305493 -.00000186  00000+0 -71458-4 0  9999
2 23088  70.9979 215.8122 0003993 326.1999  33.8868 14.14813127539328
SL-16 R/B               
1 23343U 94074B   24044.91784307  .00001224  00000+0  17710-3 0  9999
2 23343  97.8069  91.8789 0007449 145.0663  27.8060 14.77851506575708
SL-16 R/B               
1 23405U 94077B   24044.67296642  .00000124  00000+0  88029-4 0  9994
2 23405  70.9829 140.6724 0004693 248.9746 111.0875 14.15359837509392
ERS-2                   
1 23560U 95021A   24045.60175788  .01036385  58311-3  15648-2 0  9993
2 23560  98.5126  62.6161 0004515 163.5016 318.1493 16.04719543546945
ARIANE 40+ R/B          
1 23561U 95021B   24045.46755451  .00000720  00000+0  24923-3 0  9997
2 23561  98.5431 112.5982 0006078 232.3649 138.3322 14.38705739510978
SL-16 R/B               
1 23705U 95058B   24044.92673961 -.00000005  00000+0  21761-4 0  9997
2 23705  71.0246 324.6418 0013156 200.5170 159.5426 14.15289288461054
SL-16 R/B               
1 24298U 96051B   24045.15248409 -.00000079  00000+0 -16572-4 0  9996
2 24298  70.8175 330.6708 0015759 176.9875 183.1343 14.12502632415360
ORBVIEW 2 (SEASTAR)     
1 24883U 97037A   24045.12644991  .00000980  00000+0  36453-3 0  9992
2 24883  98.7530 183.2719 0003138 114.2145 245.9367 14.34364114400510
SL-16 R/B               
1 25400U 98043G   24045.46466708  .00000253  00000+0  12544-3 0  9999
2 25400  98.7330 346.9025 0010686  48.2094 311.9997 14.25700492331730
SL-16 R/B               
1 25407U 98045B   24045.16131629  .00000241  00000+0  14622-3 0  9992
2 25407  71.0137 328.0820 0005125  98.7293 261.4411 14.15974154320558
ISS (ZARYA)             
1 25544U 98067A   24045.56742001  .00023698  00000+0  42328-3 0  9999
2 25544  51.6398 207.9798 0001788 250.1293 148.6385 15.49911455439388
CZ-4B R/B               
1 25732U 99025C   24045.41442089  .00000183  00000+0  11015-3 0  9993
2 25732  98.7712  92.1864 0037062 352.2119  18.1450 14.17916829281408
OKEAN-O                 
1 25860U 99039A   24044.74138596  .00001792  00000+0  25501-3 0  9992
2 25860  98.0553  97.2365 0000741  95.3889 264.7406 14.78102885322773
SL-16 R/B               
1 25861U 99039B   24045.36752849  .00001344  00000+0  18537-3 0  9999
2 25861  98.1078  90.3254 0015378 173.9094 186.2307 14.79813447325350
DELTA 2 R/B             
1 25876U 99041E   24044.73480388  .00005425  00000+0  93559-3 0  9995
2 25876  51.7662  67.6946 0519521 286.9682  67.4948 14.07575062256524
HELIOS 1B               
1 25977U 99064A   24045.19130546  .00001864  00000+0  23080-3 0  9996
2 25977  98.2636 272.5921 0001735  40.0695 320.0646 14.83998225304520
TERRA                   
1 25994U 99068A   24045.50611873  .00001141  00000+0  24934-3 0  9998
2 25994  98.0647 112.5634 0002669  55.7058  68.0915 14.59590765285128
SL-16 R/B               
1 26070U 00006B   24045.26445167 -.00000184  00000+0 -69347-4 0  9998
2 26070  71.0004 243.8921 0018945 252.5356 107.3696 14.15604251241764
TITAN 4B R/B            
1 26474U 00047B   24045.23054269  .00006087  00000+0  47507-3 0  9996
2 26474  67.9954 348.5267 0048931 170.8685 189.3362 15.00843228279430
ENVISAT                 
1 27386U 02009A   24045.50367785  .00000385  00000+0  13982-3 0  9994
2 27386  98.2665  11.0061 0001266  91.4764  17.7869 14.38501519150796
IDEFIX & ARIANE 42P R/B 
1 27422U 02021B   24045.44763184  .00000801  00000+0  32720-3 0  9999
2 27422  98.5169 345.6986 0010963 247.1568 112.8457 14.29964129134283
AQUA                    
1 27424U 02022A   24045.52694677  .00002598  00000+0  56487-3 0  9992
2 27424  98.3169 354.5814 0001847 100.6054 320.7273 14.58869526158689
